GONETS-M 17             
1 46486U 20068A   21100.42501228  .00000015  00000-0  34750-4 0  9991
2 46486  82.4933  85.5642 0022701 201.8695 158.1422 12.42890140 24091
GONETS-M 18             
1 46487U 20068B   21100.40338809  .00000032  00000-0  16232-3 0  9996
2 46487  82.4891  85.4633 0019508 199.7809 160.2518 12.42885639 24083
GONETS-M 19             
1 46488U 20068C   21100.45523158  .00000038  00000-0  20121-3 0  9993
2 46488  82.4917  85.4423 0013074 213.2953 146.7310 12.42874217 24106
MEZNSAT                 
1 46489U 20068D   21100.52420504 -.00000093  00000-0 -22002-5 0  9998
2 46489  97.6871  38.5560 0017989 308.7523  51.2072 15.03856725 29156
YARILO 1                
1 46490U 20068E   21100.26163482  .00000057  00000-0  87027-5 0  9996
2 46490  97.6884  38.2899 0018138 312.7422  47.2274 15.03856314 29113
YARILO 2                
1 46491U 20068F   21100.26781692  .00000422  00000-0  35205-4 0  9992
2 46491  97.6883  38.2811 0017823 313.9226  46.0527 15.03797820 29116
LACUNASAT-3             
1 46492U 20068G   21100.46781838  .00000505  00000-0  41215-4 0  9997
2 46492  97.6883  38.4826 0017295 311.8390  48.1331 15.03813653 29127
DEKART                  
1 46493U 20068H   21100.61504405  .00000370  00000-0  31514-4 0  9999
2 46493  97.6893  38.5966 0017020 311.9713  48.0062 15.03617079 29147
NORBI                   
1 46494U 20068J   21100.62510500  .00000791  00000-0  62359-4 0  9992
2 46494  97.6886  38.5800 0017131 312.3496  47.6278 15.03550622 29147
SALSAT                  
1 46495U 20068K   21100.57392372  .00000955  00000-0  74629-4 0  9997
2 46495  97.6871  38.4917 0016390 305.2634  54.7063 15.03398613 29131
ICEYE-X7                
1 46496U 20068L   21100.55199871 -.00033979  00000-0 -25592-2 0  9992
2 46496  97.6898  38.3347 0014444 311.4233  48.5846 15.02544927 29128
ICEYE-X6                
1 46497U 20068M   21100.58510452  .00000749  00000-0  63407-4 0  9994
2 46497  97.6882  38.1631 0015567 321.5760  38.4346 15.00919616 29111
KEPLER-5 (AMIDALA)      
1 46498U 20068N   21100.62025337  .00000723  00000-0  58800-4 0  9996
2 46498  97.6864  38.2432 0012420 322.2279  37.8075 15.02614098 29121
KEPLER-4 (ANTILLES)     
1 46499U 20068P   21100.62200286  .00001023  00000-0  81231-4 0  9993
2 46499  97.6855  38.2349 0012679 322.3478  37.6860 15.02647568 29079
LEMUR-2-SLICERS         
1 46500U 20068Q   21100.61738981  .00000403  00000-0  34777-4 0  9997
2 46500  97.6863  38.2382 0012296 325.5998  34.4429 15.02654680 29074
LEMUR-2-DAYWZAGOODDAY   
1 46501U 20068R   21100.55917378  .00001550  00000-0  12058-3 0  9991
2 46501  97.6850  38.1608 0012711 323.2780  36.7584 15.02688080 29053
LEMUR-2-SUSURRUS        
1 46502U 20068S   21100.62886297  .00001500  00000-0  11679-3 0  9998
2 46502  97.6841  38.2148 0012490 324.2432  35.7949 15.02700347 29070
LEMUR-2-NICHOL          
1 46503U 20068T   21100.24666277  .00001401  00000-0  10997-3 0  9993
2 46503  97.6837  37.7933 0013837 329.8905  30.1524 15.02493854 29018
NETSAT-4                
1 46504U 20068U   21100.61869034  .00000455  00000-0  39273-4 0  9998
2 46504  97.6875  38.0615 0010189   1.3713 358.7538 15.02054686 29052
NETSAT-3                
1 46505U 20068V   21100.62370717  .00000605  00000-0  50779-4 0  9996
2 46505  97.6868  38.0433 0008730   1.7523 358.3729 15.02015431 29069
NETSAT-1                
1 46506U 20068W   21100.62874544  .00000809  00000-0  66365-4 0  9998
2 46506  97.6852  38.0249 0006974 359.9699   0.1525 15.01978852 29068
NETSAT-2                
1 46507U 20068X   21100.56465533  .00001049  00000-0  84745-4 0  9995
2 46507  97.6831  37.9595 0006891 356.2801   3.8386 15.01954348 29004